{"type": "FeatureCollection", "features": [ {"type": "Feature", "properties": {"norad_id": 37216, "name": "COSMO-SKYMED 4", "group": "resource", "lat": -80.55428446061352, "lon": -54.8485538427559, "alt_km": 630.8340272017876, "timestamp": "2025-12-26T09:30:53.284689+00:00", "meta": {"OBJECT_NAME": "COSMO-SKYMED 4", "OBJECT_ID": "2010-060A", "EPOCH": "2025-12-26T03:27:46.899648", "MEAN_MOTION": 14.82162538, "ECCENTRICITY": 0.0001398, "INCLINATION": 97.8807, "RA_OF_ASC_NODE": 181.2655, "ARG_OF_PERICENTER": 81.9904, "MEAN_ANOMALY": 278.1468, "EPHEMERIS_TYPE": 0, "CLASSIFICATION_TYPE": "U", "NORAD_CAT_ID": 37216, "ELEMENT_SET_NO": 999, "REV_AT_EPOCH": 81893, "BSTAR": 0.00014562, "MEAN_MOTION_DOT": 1.107e-05, "MEAN_MOTION_DDOT": 0}, "tle": {"line1": "1 37216U 10060A   25360.14429282  .00001107  00000+0  14562-3 0  9993", "line2": "2 37216  97.8807 181.2655 0001398  81.9904 278.1468 14.82162538818935"}}, "geometry": {"type": "Point", "coordinates": [-54.8485538427559, -80.55428446061352]}}, {"type": "Feature", "properties": {"norad_id": 37387, "name": "RESOURCESAT-2", "group": "resource", "lat": 41.52190960434294, "lon": -108.243811271254, "alt_km": 819.374267954614, "timestamp": "2025-12-26T09:30:53.284702+00:00", "meta": {"OBJECT_NAME": "RESOURCESAT-2", "OBJECT_ID": "2011-015A", "EPOCH": "2025-12-26T03:48:05.436000", "MEAN_MOTION": 14.21602319, "ECCENTRICITY": 0.0005765, "INCLINATION": 98.7859, "RA_OF_ASC_NODE": 63.6489, "ARG_OF_PERICENTER": 5.6034, "MEAN_ANOMALY": 354.5207, "EPHEMERIS_TYPE": 0, "CLASSIFICATION_TYPE": "U", "NORAD_CAT_ID": 37387, "ELEMENT_SET_NO": 999, "REV_AT_EPOCH": 76159, "BSTAR": 7.4266e-05, "MEAN_MOTION_DOT": 1.18e-06, "MEAN_MOTION_DDOT": 0}, "tle": {"line1": "1 37387U 11015A   25360.15839625  .00000118  00000+0  74266-4 0  9999", "line2": "2 37387  98.7859  63.6489 0005765   5.6034 354.5207 14.21602319761596"}}, "geometry": {"type": "Point", "coordinates": [-108.243811271254, 41.52190960434294]}}, {"type": "Feature", "properties": {"norad_id": 37781, "name": "HAIYANG-2A", "group": "resource", "lat": -64.8261561664764, "lon": 160.62817553508995, "alt_km": 976.3367152180554, "timestamp": "2025-12-26T09:30:53.284714+00:00", "meta": {"OBJECT_NAME": "HAIYANG-2A", "OBJECT_ID": "2011-043A", "EPOCH": "2025-12-26T04:50:24.290592", "MEAN_MOTION": 13.78836125, "ECCENTRICITY": 0.0001578, "INCLINATION": 99.3381, "RA_OF_ASC_NODE": 0.9286, "ARG_OF_PERICENTER": 66.172, "MEAN_ANOMALY": 293.9597, "EPHEMERIS_TYPE": 0, "CLASSIFICATION_TYPE": "U", "NORAD_CAT_ID": 37781, "ELEMENT_SET_NO": 999, "REV_AT_EPOCH": 72284, "BSTAR": -3.942e-05, "MEAN_MOTION_DOT": -8.4e-07, "MEAN_MOTION_DDOT": 0}, "tle": {"line1": "1 37781U 11043A   25360.20167003 -.00000084  00000+0 -39420-4 0  9995", "line2": "2 37781  99.3381   0.9286 0001578  66.1720 293.9597 13.78836125722840"}}, "geometry": {"type": "Point", "coordinates": [160.62817553508995, -64.8261561664764]}}, {"type": "Feature", "properties": {"norad_id": 37791, "name": "RASAT", "group": "resource", "lat": 54.83443574954157, "lon": 77.84177404196463, "alt_km": 649.8091981267034, "timestamp": "2025-12-26T09:30:53.284726+00:00", "meta": {"OBJECT_NAME": "RASAT", "OBJECT_ID": "2011-044D", "EPOCH": "2025-12-26T04:44:54.721248", "MEAN_MOTION": 14.67927948, "ECCENTRICITY": 0.0021224, "INCLINATION": 98.0639, "RA_OF_ASC_NODE": 89.2552, "ARG_OF_PERICENTER": 24.2468, "MEAN_ANOMALY": 62.4911, "EPHEMERIS_TYPE": 0, "CLASSIFICATION_TYPE": "U", "NORAD_CAT_ID": 37791, "ELEMENT_SET_NO": 999, "REV_AT_EPOCH": 76780, "BSTAR": 0.00012994, "MEAN_MOTION_DOT": 6.97e-06, "MEAN_MOTION_DDOT": 0}, "tle": {"line1": "1 37791U 11044D   25360.19785557  .00000697  00000+0  12994-3 0  9999", "line2": "2 37791  98.0639  89.2552 0021224  24.2468  62.4911 14.67927948767800"}}, "geometry": {"type": "Point", "coordinates": [77.84177404196463, 54.83443574954157]}}, {"type": "Feature", "properties": {"norad_id": 37841, "name": "SRMSAT", "group": "resource", "lat": 12.504226265637659, "lon": 167.66954375159958, "alt_km": 843.2563759741315, "timestamp": "2025-12-26T09:30:53.284737+00:00", "meta": {"OBJECT_NAME": "SRMSAT", "OBJECT_ID": "2011-058D", "EPOCH": "2025-12-26T02:10:29.616384", "MEAN_MOTION": 14.1151586, "ECCENTRICITY": 0.0011991, "INCLINATION": 19.9732, "RA_OF_ASC_NODE": 27.151, "ARG_OF_PERICENTER": 99.3628, "MEAN_ANOMALY": 283.7397, "EPHEMERIS_TYPE": 0, "CLASSIFICATION_TYPE": "U", "NORAD_CAT_ID": 37841, "ELEMENT_SET_NO": 999, "REV_AT_EPOCH": 73333, "BSTAR": 9.1638e-05, "MEAN_MOTION_DOT": 4.34e-06, "MEAN_MOTION_DDOT": 0}, "tle": {"line1": "1 37841U 11058D   25360.09062056  .00000434  00000+0  91638-4 0  9993", "line2": "2 37841  19.9732  27.1510 0011991  99.3628 283.7397 14.11515860733330"}}, "geometry": {"type": "Point", "coordinates": [167.66954375159958, 12.504226265637659]}}, {"type": "Feature", "properties": {"norad_id": 38012, "name": "PLEIADES 1A", "group": "resource", "lat": 66.78873505288072, "lon": -87.44745795469642, "alt_km": 690.648393809729, "timestamp": "2025-12-26T09:30:53.284747+00:00", "meta": {"OBJECT_NAME": "PLEIADES 1A", "OBJECT_ID": "2011-076F", "EPOCH": "2025-12-26T04:27:06.984864", "MEAN_MOTION": 14.58573241, "ECCENTRICITY": 0.0001058, "INCLINATION": 98.1804, "RA_OF_ASC_NODE": 72.7456, "ARG_OF_PERICENTER": 78.1826, "MEAN_ANOMALY": 6.5389, "EPHEMERIS_TYPE": 0, "CLASSIFICATION_TYPE": "U", "NORAD_CAT_ID": 38012, "ELEMENT_SET_NO": 999, "REV_AT_EPOCH": 74677, "BSTAR": 7.7677e-05, "MEAN_MOTION_DOT": 3.16e-06, "MEAN_MOTION_DDOT": 0}, "tle": {"line1": "1 38012U 11076F   25360.18549751  .00000316  00000+0  77677-4 0  9992", "line2": "2 38012  98.1804  72.7456 0001058  78.1826   6.5389 14.58573241746775"}}, "geometry": {"type": "Point", "coordinates": [-87.44745795469642, 66.78873505288072]}}, {"type": "Feature", "properties": {"norad_id": 38038, "name": "ZIYUAN 1-02C (ZY 1-02C)", "group": "resource", "lat": 81.50840099267289, "lon": -30.41613291419503, "alt_km": 752.2827038835139, "timestamp": "2025-12-26T09:30:53.284758+00:00", "meta": {"OBJECT_NAME": "ZIYUAN 1-02C (ZY 1-02C)", "OBJECT_ID": "2011-079A", "EPOCH": "2025-12-26T04:28:50.520576", "MEAN_MOTION": 14.38026583, "ECCENTRICITY": 0.0007555, "INCLINATION": 98.4312, "RA_OF_ASC_NODE": 65.9513, "ARG_OF_PERICENTER": 103.5773, "MEAN_ANOMALY": 342.1589, "EPHEMERIS_TYPE": 0, "CLASSIFICATION_TYPE": "U", "NORAD_CAT_ID": 38038, "ELEMENT_SET_NO": 999, "REV_AT_EPOCH": 73434, "BSTAR": 0.00015118, "MEAN_MOTION_DOT": 4.14e-06, "MEAN_MOTION_DDOT": 0}, "tle": {"line1": "1 38038U 11079A   25360.18669584  .00000414  00000+0  15118-3 0  9990", "line2": "2 38038  98.4312  65.9513 0007555 103.5773 342.1589 14.38026583734341"}}, "geometry": {"type": "Point", "coordinates": [-30.41613291419503, 81.50840099267289]}}, {"type": "Feature", "properties": {"norad_id": 38338, "name": "ARIRANG-3 (KOMPSAT-3)", "group": "resource", "lat": 15.577111365420796, "lon": 137.43217454089216, "alt_km": 690.2474200976003, "timestamp": "2025-12-26T09:30:53.284769+00:00", "meta": {"OBJECT_NAME": "ARIRANG-3 (KOMPSAT-3)", "OBJECT_ID": "2012-025B", "EPOCH": "2025-12-26T03:50:14.203104", "MEAN_MOTION": 14.61729689, "ECCENTRICITY": 0.0004668, "INCLINATION": 98.3342, "RA_OF_ASC_NODE": 314.8517, "ARG_OF_PERICENTER": 290.1461, "MEAN_ANOMALY": 69.9237, "EPHEMERIS_TYPE": 0, "CLASSIFICATION_TYPE": "U", "NORAD_CAT_ID": 38338, "ELEMENT_SET_NO": 999, "REV_AT_EPOCH": 72606, "BSTAR": 0.0001279, "MEAN_MOTION_DOT": 5.89e-06, "MEAN_MOTION_DDOT": 0}, "tle": {"line1": "1 38338U 12025B   25360.15988661  .00000589  00000+0  12790-3 0  9998", "line2": "2 38338  98.3342 314.8517 0004668 290.1461  69.9237 14.61729689726062"}}, "geometry": {"type": "Point", "coordinates": [137.43217454089216, 15.577111365420796]}}, {"type": "Feature", "properties": {"norad_id": 38709, "name": "EXACTVIEW-1 (ADS-1B)", "group": "resource", "lat": 24.231541893986698, "lon": -66.8532598218905, "alt_km": 814.8393261850861, "timestamp": "2025-12-26T09:30:53.284779+00:00", "meta": {"OBJECT_NAME": "EXACTVIEW-1 (ADS-1B)", "OBJECT_ID": "2012-039C", "EPOCH": "2025-12-25T20:59:26.609856", "MEAN_MOTION": 14.24913142, "ECCENTRICITY": 0.0010108, "INCLINATION": 98.9638, "RA_OF_ASC_NODE": 108.5404, "ARG_OF_PERICENTER": 314.6853, "MEAN_ANOMALY": 45.3501, "EPHEMERIS_TYPE": 0, "CLASSIFICATION_TYPE": "U", "NORAD_CAT_ID": 38709, "ELEMENT_SET_NO": 999, "REV_AT_EPOCH": 69802, "BSTAR": 8.8694e-05, "MEAN_MOTION_DOT": 1.61e-06, "MEAN_MOTION_DDOT": 0}, "tle": {"line1": "1 38709U 12039C   25359.87461354  .00000161  00000+0  88694-4 0  9990", "line2": "2 38709  98.9638 108.5404 0010108 314.6853  45.3501 14.24913142698028"}}, "geometry": {"type": "Point", "coordinates": [-66.8532598218905, 24.231541893986698]}}, {"type": "Feature", "properties": {"norad_id": 38755, "name": "SPOT 6", "group": "resource", "lat": 34.40889836487307, "lon": 59.29103564628376, "alt_km": 695.013381773063, "timestamp": "2025-12-26T09:30:53.284790+00:00", "meta": {"OBJECT_NAME": "SPOT 6", "OBJECT_ID": "2012-047A", "EPOCH": "2025-12-26T04:24:58.960800", "MEAN_MOTION": 14.58544281, "ECCENTRICITY": 0.000121, "INCLINATION": 98.1551, "RA_OF_ASC_NODE": 64.7192, "ARG_OF_PERICENTER": 78.2923, "MEAN_ANOMALY": 281.8412, "EPHEMERIS_TYPE": 0, "CLASSIFICATION_TYPE": "U", "NORAD_CAT_ID": 38755, "ELEMENT_SET_NO": 999, "REV_AT_EPOCH": 70783, "BSTAR": 0.00011112, "MEAN_MOTION_DOT": 4.71e-06, "MEAN_MOTION_DDOT": 0}, "tle": {"line1": "1 38755U 12047A   25360.18401575  .00000471  00000+0  11112-3 0  9999", "line2": "2 38755  98.1551  64.7192 0001210  78.2923 281.8412 14.58544281707836"}}, "geometry": {"type": "Point", "coordinates": [59.29103564628376, 34.40889836487307]}}]}